OBJECT_NAME,OBJECT_ID,EPOCH,MEAN_MOTION,ECCENTRICITY,INCLINATION,RA_OF_ASC_NODE,ARG_OF_PERICENTER,MEAN_ANOMALY,EPHEMERIS_TYPE,CLASSIFICATION_TYPE,NORAD_CAT_ID,ELEMENT_SET_NO,REV_AT_EPOCH,BSTAR,MEAN_MOTION_DOT,MEAN_MOTION_DDOT
CHUANGXIN 1-02 (CX-1-02),2008-056B,2026-06-04T23:37:06.253824,14.30150292,.00142287,98.6134,182.3724,171.2337,188.9096,0,U,33434,999,91687,.30203338E-4,.34E-6,0
STARS (KUKAI),2009-002G,2026-06-03T15:19:22.134432,14.95649410,.00076648,98.1544,101.3959,206.9688,153.1134,0,U,33498,999,93645,.35869272E-3,.3927E-4,0
KKS-1 (KISEKI),2009-002H,2026-06-04T20:13:29.009568,14.83091539,.00073483,98.1193,78.0894,341.1315,18.9625,0,U,33499,999,93436,.21356108E-3,.1684E-4,0
UK-DMC 2,2009-041C,2026-06-04T22:56:11.081184,14.76012091,.00013418,97.8826,291.2218,73.1106,287.0251,0,U,35683,999,90476,.17024078E-3,.1123E-4,0
OCEANSAT-2,2009-051A,2026-06-04T23:24:41.469408,13.99662716,.00145372,98.2321,144.0453,273.6656,86.2848,0,U,35931,999,87762,.15960372E-3,.196E-5,0
SWISSCUBE,2009-051B,2026-06-03T06:42:55.096704,14.62453382,.00053989,98.4045,61.9256,254.9932,105.0671,0,U,35932,999,88712,.25059349E-3,.122E-4,0
BEESAT-1,2009-051C,2026-06-03T14:58:59.003328,14.61697093,.00039096,98.3973,61.9398,272.0464,88.0289,0,U,35933,999,88720,.20663001E-3,.98E-5,0
ITUPSAT1,2009-051E,2026-06-04T16:47:20.224032,14.60421767,.00061344,98.4056,62.2366,280.9538,79.0971,0,U,35935,999,88691,.20796282E-3,.958E-5,0
DMSP 5D-3 F18 (USA 210),2009-057A,2026-06-04T21:46:20.735616,14.14889826,.00099389,98.9033,136.7033,288.6918,71.3176,0,U,35951,999,85785,.17689534E-3,.297E-5,0
PROBA-2,2009-059B,2026-06-04T07:27:20.195424,14.54856807,.00124423,98.2449,338.8422,325.3575,34.6810,0,U,36037,999,87965,.64911043E-4,.233E-5,0
YAOGAN-7,2009-069A,2026-06-04T16:47:36.747168,14.77996983,.00260069,98.0085,41.6431,80.1150,280.2994,0,U,36110,999,88778,.9417004E-4,.63E-5,0
XIWANG-1 (HOPE-1),2009-072B,2026-06-04T20:32:40.746624,13.16437636,.00067919,100.4026,109.8856,262.8970,97.1371,0,U,36122,999,79138,-.23974897E-3,-.136E-5,0
COSMOS 2463,2010-017A,2026-06-04T15:42:20.858112,13.71664853,.00366816,82.9609,258.9133,162.8538,311.8786,0,U,36519,999,80621,.59264997E-4,.69E-6,0
CARTOSAT-2B,2010-035A,2026-06-04T22:56:41.918208,14.78644085,.00102721,97.9953,206.5827,226.1500,133.8863,0,U,36795,999,85804,.72868462E-4,.482E-5,0
TISAT 1,2010-035E,2026-06-03T07:55:54.974496,15.31153617,.00005682,98.0708,99.6565,17.2069,342.9189,0,U,36799,999,86558,.76310205E-3,.22924E-3,0
YAOGAN-10,2010-038A,2026-06-04T21:35:21.254784,14.85308612,.00016,97.8975,179.4013,88.9335,31.7640,0,U,36834,999,85538,.19976465E-3,.1663E-4,0
SHIJIAN-6 04B (SJ-6 04B),2010-051B,2026-06-04T22:38:11.347296,14.99287036,.00096873,97.8681,161.2291,352.2942,7.8130,0,U,37180,999,85384,.93985417E-4,.1086E-4,0
FENGYUN 3B,2010-059A,2026-06-05T00:13:17.158368,14.14837757,.00212844,98.9619,201.9715,219.3380,255.2561,0,U,37214,999,80570,.19082002E-4,-.8E-7,0
COSMO-SKYMED 4,2010-060A,2026-06-04T22:54:10.700928,14.82161119,.00014474,97.8883,339.7314,83.2730,276.8647,0,U,37216,999,84275,.10826245E-3,.81E-5,0
O/OREOS (USA 219),2010-062C,2026-06-04T12:55:40.477152,14.93687553,.00123549,71.9702,108.9883,90.8260,269.4326,0,U,37224,999,11475,.28217593E-3,.2928E-4,0
RESOURCESAT-2,2011-015A,2026-06-04T21:54:26.561952,14.21603759,.00101835,98.7646,223.4389,295.0390,64.9729,0,U,37387,999,78443,.70490452E-4,.11E-5,0
YOUTHSAT,2011-015B,2026-06-03T13:13:37.530048,14.25624361,.00150616,98.3675,129.2206,26.6675,88.8490,0,U,37388,999,78569,.11044195E-3,.221E-5,0
APRIZESAT 6,2011-044F,2026-06-04T17:58:01.334784,14.76897456,.00442147,98.2372,65.9940,124.6952,296.7831,0,U,37793,999,79531,.13078284E-3,.878E-5,0
JUGNU,2011-058B,2026-06-01T01:53:10.333248,14.13771859,.00184994,19.9618,46.2876,258.1927,242.1590,0,U,37839,999,75674,.98509485E-4,.456E-5,0
SRMSAT,2011-058D,2026-06-04T06:57:29.209824,14.11572942,.00119136,19.9702,137.5332,62.8275,26.7062,0,U,37841,999,75599,.69540005E-4,.393E-5,0
